0 SL-8 R/B
1 12804U 81087B   13281.50810950  .00000223  00000-0  16992-3 0  7403
2 12804 082.9283 287.9757 0043142 035.6062 128.5872 13.89066180626245
0 SL-8 R/B
1 12804U 81087B   13282.51736125  .00000235  00000-0  17956-3 0  7411
2 12804 082.9281 287.2085 0043054 032.7825 135.4319 13.89067041626382
0 SL-8 R/B
1 12804U 81087B   13283.59220424  .00000211  00000-0  15949-3 0  7425
2 12804 082.9280 286.3915 0042987 029.7401 110.3076 13.89067241626534
0 SL-8 R/B
1 12804U 81087B   13285.60885388  .00000182  00000-0  13647-3 0  7447
2 12804 082.9280 284.8584 0042879 024.0180 114.8128 13.89067962626819
0 SL-8 R/B
1 12804U 81087B   13286.61650240  .00000184  00000-0  13803-3 0  7453
2 12804 082.9280 284.0923 0042816 021.1710 113.6737 13.89068346626951
0 SL-8 R/B
1 12804U 81087B   13287.62548339  .00000189  00000-0  14156-3 0  7468
2 12804 082.9281 283.3251 0042719 018.2954 119.2242 13.89068934627099
0 SL-8 R/B
1 12804U 81087B   13289.12480183  .00000179  00000-0  13356-3 0  7478
2 12804 082.9284 282.1851 0042630 014.0195 056.7826 13.89069585627308
0 SL-8 R/B
1 12804U 81087B   13290.12998037  .00000178  00000-0  13318-3 0  7480
2 12804 082.9286 281.4208 0042568 011.1577 043.3198 13.89069845627448
0 SL-8 R/B
1 12804U 81087B   13291.13666686  .00000185  00000-0  13856-3 0  7490
2 12804 082.9288 280.6554 0042469 008.2655 037.4254 13.89070155627587
0 SL-8 R/B
1 12804U 81087B   13292.14551169  .00000193  00000-0  14563-3 0  7508
2 12804 082.9290 279.8884 0042399 005.3860 042.3062 13.89070253627721
0 SL-8 R/B
1 12804U 81087B   13293.46660130  .00000215  00000-0  16353-3 0  7518
2 12804 082.9291 278.8842 0042307 001.5814 168.6497 13.89070671627909
0 SL-8 R/B
1 12804U 81087B   13294.47235498  .00000221  00000-0  16809-3 0  7529
2 12804 082.9292 278.1198 0042254 358.7099 158.0759 13.89071030628040
0 SL-8 R/B
1 12804U 81087B   13295.47961147  .00000243  00000-0  18657-3 0  7535
2 12804 082.9292 277.3542 0042184 355.7842 155.0684 13.89071517628188
